[{"OBJECT_NAME":"STARLINK-31197","OBJECT_ID":"2024-019G","EPOCH":"2026-03-09T12:33:49.192992","MEAN_MOTION":15.27580405,"ECCENTRICITY":5.751e-5,"INCLINATION":43,"RA_OF_ASC_NODE":250.1498,"ARG_OF_PERICENTER":238.4464,"MEAN_ANOMALY":121.6331,"EPHEMERIS_TYPE":0,"CLASSIFICATION_TYPE":"U","NORAD_CAT_ID":58859,"ELEMENT_SET_NO":999,"REV_AT_EPOCH":11905,"BSTAR":-1.0146495e-5,"MEAN_MOTION_DOT":-5.41e-6,"MEAN_MOTION_DDOT":0},{"OBJECT_NAME":"WT 1B","OBJECT_ID":"2019-032G","EPOCH":"2026-03-09T21:42:21.881088","MEAN_MOTION":15.25021485,"ECCENTRICITY":0.0008099,"INCLINATION":44.9738,"RA_OF_ASC_NODE":242.0209,"ARG_OF_PERICENTER":49.7728,"MEAN_ANOMALY":310.3861,"EPHEMERIS_TYPE":0,"CLASSIFICATION_TYPE":"U","NORAD_CAT_ID":44316,"ELEMENT_SET_NO":999,"REV_AT_EPOCH":37191,"BSTAR":0.00065022477,"MEAN_MOTION_DOT":0.00016297,"MEAN_MOTION_DDOT":0}]
